GPS BIIR-08             
1 27663U 03005A   26113.35829738 -.00000022  00000+0  00000+0 0  9993
2 27663  54.8935 217.1468 0148215  52.9546  17.7730  2.00563449170210
GPS BIIR-11             
1 28190U 04009A   26114.28611727 -.00000024  00000+0  00000+0 0  9996
2 28190  54.8755 277.8635 0113573 170.7482   4.3646  2.00556357161861
GPS BIIR-13             
1 28474U 04045A   26111.72461021 -.00000065  00000+0  00000+0 0  9992
2 28474  55.1682 327.1704 0170118 314.8285 236.1355  2.00553145157291
GPS BIIR-14M            
1 28874U 05038A   26114.26155845 -.00000023  00000+0  00000+0 0  9999
2 28874  54.9235 275.3521 0127795 295.8403 247.8735  2.00569345150754
METEOSAT-9 (MSG-2)      
1 28912U 05049B   26113.93617780  .00000114  00000+0  00000+0 0  9998
2 28912   9.2420  54.6903 0000372 346.0252 193.9141  1.00273321  6454
GPS BIIR-16M            
1 29601U 06052A   26112.57564140 -.00000010  00000+0  00000+0 0  9995
2 29601  54.9446 216.2100 0086524  90.2271 270.7831  2.00554859142294
GPS BIIR-17M            
1 32260U 07047A   26113.87791041  .00000015  00000+0  00000+0 0  9995
2 32260  54.0564  82.3027 0164706  86.4532 275.4105  2.00557941135728
GPS BIIR-18M            
1 32384U 07062A   26111.94998582 -.00000007  00000+0  00000+0 0  9996
2 32384  55.0795 276.4116 0034429 162.1544  12.9167  2.00556469134387
GOES 14                 
1 35491U 09033A   26114.52351322 -.00000051  00000+0  00000+0 0  9999
2 35491   1.5533  83.6501 0001661 308.4558 180.7696  1.00116007  6055
GOES 15                 
1 36411U 10008A   26114.51008083  .00000009  00000+0  00000+0 0  9990
2 36411   1.1363  83.8264 0003833  24.0239 351.5737  1.00272092 59108
GSAT0101 (GALILEO-PFM)  
1 37846U 11060A   26113.29606242 -.00000087  00000+0  00000+0 0  9994
2 37846  57.0105 343.2506 0003772  24.6527 335.4053  1.70475605 90182
GSAT0102 (GALILEO-FM2)  
1 37847U 11060B   26112.30979508 -.00000084  00000+0  00000+0 0  9991
2 37847  57.0122 343.2780 0004705   7.1033 153.2259  1.70475846 90171
LUCH 5A                 
1 37951U 11074B   26114.17407791 -.00000059  00000+0  00000+0 0  9991
2 37951   8.6194  74.5852 0002695 299.1495  68.0591  1.00272370 52511
METEOSAT-10 (MSG-3)     
1 38552U 12035B   26113.71330639 -.00000015  00000+0  00000+0 0  9994
2 38552   4.5450  61.2460 0002245 292.4510 115.1035  1.00275927 50316
SARSAT 13 (METOP-B)     
1 38771U 12049A   26114.41048801  .00000074  00000+0  53730-4 0  9994
2 38771  98.6552 166.9704 0003342 128.1350 232.0129 14.21432506705625
GPS BIIF-3              
1 38833U 12053A   26113.97246792  .00000040  00000+0  00000+0 0  9997
2 38833  53.5743 145.8203 0177937  65.1328 296.7656  2.00566553 98354
GSAT0103 (GALILEO-FM3)  
1 38857U 12055A   26114.50963772  .00000046  00000+0  00000+0 0  9995
2 38857  55.7738 103.0168 0005919 295.3633  64.5698  1.70473342 84092
GPS BIIF-4              
1 39166U 13023A   26113.33948645 -.00000014  00000+0  00000+0 0  9993
2 39166  54.5486 271.2064 0141929  50.6414 310.5808  2.00563719 94783
INSAT-3D                
1 39216U 13038B   26114.52325421 -.00000352  00000+0  00000+0 0  9993
2 39216   1.7890  83.1781 0001503 276.0534 171.2117  1.00272792 46541
GPS BIIF-5              
1 39533U 14008A   26114.33727911  .00000036  00000+0  00000+0 0  9990
2 39533  53.6442 151.5163 0083755 230.0745 129.2472  2.00556286 88603
LUCH 5V                 
1 39727U 14023A   26114.49279485 -.00000280  00000+0  00000+0 0  9999
2 39727   5.0026  70.2654 0002102 335.1859  79.2373  1.00272503 43824
GPS BIIF-6              
1 39741U 14026A   26112.12026296 -.00000072  00000+0  00000+0 0  9995
2 39741  56.5238 333.7007 0039017 326.5761  33.2155  2.00564997 87419
GPS BIIF-7              
1 40105U 14045A   26114.20498424  .00000034  00000+0  00000+0 0  9996
2 40105  55.3185  90.6141 0031628 119.1964 241.1086  2.00554768 84990
GSAT0201 (GALILEO 5)    
1 40128U 14050A   26113.97936068 -.00000038  00000+0  00000+0 0  9996
2 40128  48.9356 275.6551 1665958 177.2724 183.7662  1.85519925 77319
GSAT0202 (GALILEO 6)    
1 40129U 14050B   26112.61814241 -.00000026  00000+0  00000+0 0  9992
2 40129  48.9541 274.7956 1666851 177.9520 182.8300  1.85520499 79453
GPS BIIF-8              
1 40294U 14068A   26113.08204579 -.00000078  00000+0  00000+0 0  9990
2 40294  56.9520  33.0781 0065131  68.7704 291.9309  2.00572701 84108
GLONASS-K 2             
1 40315U 14075A   26113.39738229 -.00000007  00000+0  00000+0 0  9992
2 40315  63.6140 192.2680 0021796 209.7934 150.1349  2.13101329 88687
GPS BIIF-9              
1 40534U 15013A   26113.21627339 -.00000020  00000+0  00000+0 0  9993
2 40534  53.1749 206.4511 0108865  39.9865 320.8421  2.00554555 80722
GSAT0203 (GALILEO 7)    
1 40544U 15017A   26111.90090206 -.00000083  00000+0  00000+0 0  9998
2 40544  56.8042 343.1309 0002546 315.4442  44.5780  1.70475713 68240
GSAT0204 (GALILEO 8)    
1 40545U 15017B   26111.56996756 -.00000081  00000+0  00000+0 0  9994
2 40545  56.8107 343.1583 0002165 291.9828  68.0380  1.70475494 31287
GPS BIIF-10             
1 40730U 15033A   26112.87724529 -.00000011  00000+0  00000+0 0  9993
2 40730  54.0276 269.3652 0115004  29.8576 330.7649  2.00558986 78887
METEOSAT-11 (MSG-4)     
1 40732U 15034A   26114.28553167  .00000051  00000+0  00000+0 0  9994
2 40732   3.0669  71.3896 0001618 343.8669 269.5012  1.00263330  6673
GSAT0205 (GALILEO 9)    
1 40889U 15045A   26110.85404129  .00000000  00000+0  00000+0 0  9995
2 40889  54.9634 223.3030 0004870 267.7924  92.1531  1.67410744 66008
GSAT0206 (GALILEO 10)   
1 40890U 15045B   26109.79887237  .00000004  00000+0  00000+0 0  9997
2 40890  54.9633 223.2157 0002311  40.7156 319.2995  1.70473867 66042
GPS BIIF-11             
1 41019U 15062A   26112.93517689 -.00000077  00000+0  00000+0 0  9992
2 41019  56.9246  32.9401 0111234 231.5322 127.4749  2.00566892 76722
ELEKTRO-L 2             
1 41105U 15074A   26114.54486081 -.00000128  00000+0  00000+0 0  9998
2 41105   6.5616  71.1661 0002314 253.1104  69.9438  1.00270491 37963
GSAT0209 (GALILEO 12)   
1 41174U 15079A   26112.31317230  .00000042  00000+0  00000+0 0  9995
2 41174  55.7933 102.7927 0005667 328.3957  31.5595  1.70474049 63823
GSAT0208 (GALILEO 11)   
1 41175U 15079B   26113.70661183  .00000044  00000+0  00000+0 0  9991
2 41175  55.7940 102.7517 0005073 330.2209  29.7424  1.70473916 64261
GPS BIIF-12             
1 41328U 16007A   26114.01999936  .00000036  00000+0  00000+0 0  9999
2 41328  55.4911  91.6056 0096108 247.0580 111.9143  2.00554227 74752
GSAT0211 (GALILEO 14)   
1 41549U 16030A   26113.24411647 -.00000019  00000+0  00000+0 0  9994
2 41549  55.1124 223.2053 0002536   0.7640 359.2367  1.70474061 61735
GSAT0210 (GALILEO 13)   
1 41550U 16030B   26111.15506160 -.00000001  00000+0  00000+0 0  9990
2 41550  55.1125 223.2608 0002735 224.3398 135.6408  1.70473979 61693
INSAT-3DR               
1 41752U 16054A   26114.14072475 -.00000091  00000+0  00000+0 0  9998
2 41752   0.1079  86.0162 0011833 195.2646  55.5487  1.00270973 35270
GSAT0207 (GALILEO 15)   
1 41859U 16069A   26113.19301128  .00000042  00000+0  00000+0 0  9991
2 41859  55.4647 102.6061 0005905 316.7510  43.1935  1.70473937 58467
GSAT0212 (GALILEO 16)   
1 41860U 16069B   26111.28674698  .00000041  00000+0  00000+0 0  9995
2 41860  55.4605 102.6541 0004614 339.9086  20.0619  1.70474149 58680
GSAT0213 (GALILEO 17)   
1 41861U 16069C   26111.65410244  .00000041  00000+0  00000+0 0  9992
2 41861  55.4625 102.6517 0005856 301.9100  58.0216  1.70474475 58553
GSAT0214 (GALILEO 18)   
1 41862U 16069D   26114.14655535  .00000044  00000+0  00000+0 0  9997
2 41862  55.4637 102.5756 0004906 307.1164  52.8319  1.70474224 58721
GOES 16                 
1 41866U 16071A   26114.47680071 -.00000105  00000+0  00000+0 0  9992
2 41866   0.2065  85.2274 0001589 245.2022 309.0168  1.00270921 34565
GSAT-17                 
1 42815U 17040B   26114.44482058 -.00000272  00000+0  00000+0 0  9991
2 42815   0.0549  74.4981 0004114 238.8502 152.7578  1.00272564 32255
GSAT0215 (GALILEO 19)   
1 43055U 17079A   26113.46347810 -.00000022  00000+0  00000+0 0  9990
2 43055  55.0907 223.0118 0001428 264.4741  95.5096  1.70474699 52058
GSAT0216 (GALILEO 20)   
1 43056U 17079B   26112.58150778 -.00000013  00000+0  00000+0 0  9998
2 43056  55.0901 223.0360 0002684 285.3813  74.5916  1.70474788 52056
GSAT0217 (GALILEO 21)   
1 43057U 17079C   26110.45596079  .00000003  00000+0  00000+0 0  9999
2 43057  55.0900 223.0923 0002164 310.1804  49.8016  1.70474665 52006
GSAT0218 (GALILEO 22)   
1 43058U 17079D   26111.84918258 -.00000006  00000+0  00000+0 0  9995
2 43058  55.0895 223.0518 0003219 275.9847  83.9821  1.70474594 52056
GOES 17                 
1 43226U 18022A   26114.47983404 -.00000196  00000+0  00000+0 0  9998
2 43226   0.8015  86.4243 0000705 265.4579 303.8757  1.00271413 29889
GSAT0221 (GALILEO 25)   
1 43564U 18060A   26114.09926934 -.00000088  00000+0  00000+0 0  9998
2 43564  57.1855 343.2419 0003848 321.5084  38.5036  1.70475641 48245
GSAT0222 (GALILEO 26)   
1 43565U 18060B   26111.38590539 -.00000080  00000+0  00000+0 0  9998
2 43565  57.1907 343.3186 0002541 291.1885  68.8291  1.70475329 48248
GSAT0219 (GALILEO 23)   
1 43566U 18060C   26113.95323101 -.00000088  00000+0  00000+0 0  9991
2 43566  57.1884 343.2507 0003352 340.2281  19.7984  1.70475588 48269
GSAT0220 (GALILEO 24)   
1 43567U 18060D   26111.82799347 -.00000082  00000+0  00000+0 0  9999
2 43567  57.1850 343.3074 0003374  38.3401 321.7274  1.70475290 48219
BEIDOU-3 M13            
1 43622U 18072A   26113.22937909 -.00000018  00000+0  00000+0 0  9997
2 43622  56.5789  64.4723 0008749 318.8372  41.0722  1.86231044 51635
BEIDOU-3 M14            
1 43623U 18072B   26114.16873600 -.00000021  00000+0  00000+0 0  9993
2 43623  56.5817  64.4355 0006913 341.9736  17.9774  1.86231061 51640
